HULIANWANG DIGUI 12H    
1 66002U 25231H   25308.45619763  .00000027  00000+0  11258-3 0  9994
2 66002  50.0062 278.7208 0007756 340.0765  19.9835 14.03811241  2735
HULIANWANG DIGUI 12J    
1 66003U 25231J   25308.45171766  .00000034  00000+0  11700-3 0  9991
2 66003  50.0037 278.6909 0005545 338.7086  21.3587 14.03906550  2738
CZ-8A R/B               
1 66004U 25231K   25308.46681272 -.00000069  00000+0  34141-4 0  9995
2 66004  50.0034 275.3214 0116676 152.3698 208.3482 14.30033377  2780
STARLINK-34849          
1 66005U 25232A   25308.25002315 -.01808302  00000+0 -33509-1 0  9991
2 66005  53.1593 329.2008 0001273  76.9891 264.9404 15.51825840  3351
STARLINK-35336          
1 66006U 25232B   25308.50003471 -.01728991  00000+0 -33188-1 0  9992
2 66006  53.1591 327.9982 0001433  85.8993 215.0020 15.50693145  3403
STARLINK-35196          
1 66007U 25232C   25308.50003471 -.01741860  00000+0 -33456-1 0  9991
2 66007  53.1592 327.9948 0001405  86.8204 215.9972 15.50700746  3403
STARLINK-35236          
1 66008U 25232D   25308.50003471 -.01813508  00000+0 -34972-1 0  9995
2 66008  53.1591 327.9903 0001556  58.7247 246.0059 15.50728538  3406
STARLINK-35276          
1 66009U 25232E   25308.50003471 -.01812851  00000+0 -34958-1 0  9990
2 66009  53.1589 327.9865 0001493  67.3245 239.3232 15.50728483  3390
STARLINK-35297          
1 66010U 25232F   25308.50003471 -.01832112  00000+0 -35364-1 0  9996
2 66010  53.1590 327.9830 0001477  66.8707 241.6920 15.50739818  3401
STARLINK-35256          
1 66011U 25232G   25308.50003471 -.01730693  00000+0 -33223-1 0  9990
2 66011  53.1591 327.9658 0001501  91.2301 225.0070 15.50693420  3401
STARLINK-35293          
1 66012U 25232H   25308.50003471 -.01735519  00000+0 -33324-1 0  9995
2 66012  53.1590 327.9778 0001460  85.2414 225.2444 15.50696404  3408
STARLINK-35307          
1 66013U 25232J   25308.50003471 -.01817749  00000+0 -35059-1 0  9999
2 66013  53.1590 327.9744 0001642  63.1909 249.2037 15.50731593  3333
